#aV2023  7 12  0  0  0.00000000     288 DD+AD WGS84 FIT  NGA
## 2270 259200.00000000   300.00000000 60137 0.0000000000000
+   32     1  2  3  4  5  6  7  8  9 10 11 12 13 14 15 16 17
+         18 19 20 21 22 23 24 25 26 27 28 29 30 31 32  0  0
+          0  0  0  0  0  0  0  0  0  0  0  0  0  0  0  0  0
+          0  0  0  0  0  0  0  0  0  0  0  0  0  0  0  0  0
+          0  0  0  0  0  0  0  0  0  0  0  0  0  0  0  0  0
++         2  2  2  2  2  2  2  2  2  2  2  2  2  2  2  2  2
++         2  2  2  2  2  2  2  2  2  2  2  2  2  2  2  0  0
++         0  0  0  0  0  0  0  0  0  0  0  0  0  0  0  0  0
++         0  0  0  0  0  0  0  0  0  0  0  0  0  0  0  0  0
++         0  0  0  0  0  0  0  0  0  0  0  0  0  0  0  0  0
%c cc cc ccc ccc cccc cccc cccc cccc ccccc ccccc ccccc ccccc
%c cc cc ccc ccc cccc cccc cccc cccc ccccc ccccc ccccc ccccc
%f  0.0000000  0.000000000  0.00000000000  0.000000000000000
%f  0.0000000  0.000000000  0.00000000000  0.000000000000000
%i    0    0    0    0      0      0      0      0         0
%i    0    0    0    0      0      0      0      0         0
/*      NGA, ST. LOUIS,MO.                                  
/*   EPHEMERIS COMPUTED FROM 2 DAYS OF DATA                 
/*   EPOCHA v8 SMOOTHER                                     
/*   G2139 IERS2010 SATIGS SATAPC                           
*  2023  7 12 10 40  0.00000000
P  1  13627.066505 -17580.552357  13903.371501    173.417504                    
V  1  -2545.640045  18238.366260  25278.129564     -0.019227                    
P  2  14839.891654 -11908.389371  18970.632634   -576.948075                    
V  2  -1862.630452  23046.228063  16512.318895      0.038434                    
P  3  21402.215975 -12954.024259  -8881.216351   -235.731866                    
V  3  11208.916480  -1325.698998  29524.770062      0.153893                    
P  4  11553.412321  -9874.279477 -21773.741497     93.552232                    
V  4  19676.291102  19445.971860   1507.275145      0.108217                    
P  5 -25361.270649   3984.075489  -7215.710539   -134.595192                    
V  5   7535.226340  -5271.876888 -30042.852206     -0.014570                    
P  6  -6693.038045 -19505.754973 -16625.956030    578.617274                    
V  6   6101.770898 -20346.781077  21428.909985     -0.034032                    
P  7   5481.532885 -25715.142307    388.128346    127.333491                    
V  7   3490.504284    837.881259 -31827.339932     -0.107866                    
P  8  19771.455284    544.477307  17837.313282   -131.779809                    
V  8  16172.585810  15936.673760 -17949.293963     -0.019255                    
P  9   1807.393895 -17296.878787 -20136.580138   -114.121104                    
V  9  19868.606429  15914.176023 -11972.675095      0.092786                    
P 10   7336.287063  13202.452868  22047.882082    -44.851726                    
V 10 -26176.195232   8382.385627   3414.342999     -0.014918                    
P 11 -14287.967689  -4993.260405 -21817.068639   -272.734595                    
V 11   7432.782833 -26693.458360   1199.151280     -0.160866                    
P 12 -23877.371168  10006.308220  -6016.054256   -399.739345                    
V 12  -7704.630106   -832.690228  30671.788621     -0.046180                    
P 13 -20418.747113  -9822.050366  13846.354462    546.075165                    
V 13  -9890.346333 -14904.309445 -24623.931886      0.049788                    
P 14  -3561.927572 -15084.974366  21583.629932    119.803355                    
V 14  26427.879363  -7283.158369   -889.171338      0.120593                    
P 15 -19484.085581   2417.408068  17535.335400     57.290031                    
V 15 -17991.448858 -14779.972447 -17237.845491      0.035588                    
P 16  24685.863371   2001.945068 -10491.098309   -481.666003                    
V 16 -11999.710120   4644.780716 -27733.700700      0.043671                    
P 17 -11996.563234 -21801.968541   9557.394195    720.796798                    
V 17   9561.887561   6810.805962  28946.079431      0.008164                    
P 18  -4378.545844  25964.757763   2703.705118   -342.569812                    
V 18  -3268.751037   2756.081065 -31905.207617     -0.142887                    
P 19 -16924.895673 -20635.224675   1399.607177    342.827543                    
V 19   2963.120086     81.359933  31742.891363      0.051425                    
P 20 -21118.113965  -1913.154836 -15841.767020    423.097063                    
V 20  17002.939659 -11300.355695 -21440.291210     -0.020489                    
P 21  15390.688529  -8128.823945  20339.445675    152.235909                    
V 21  -1878.673488  24878.438767  12545.481093     -0.004129                    
P 22  18438.993775  19196.938232   -744.343513    511.603489                    
V 22   -926.503879   2877.415894  31684.848830      0.055636                    
P 23  -6616.330760  16455.644685  19721.508637     42.427065                    
V 23 -24033.244669   7141.541395 -14180.129906      0.041160                    
P 24 -14426.120271  13833.056269  16920.247409   -255.248411                    
V 24    356.912198 -22581.333203  18791.664031     -0.123892                    
P 25 -13917.027762  16371.081481 -15752.231488    455.618471                    
V 25 -19272.996047   4029.015541  21907.103012      0.023677                    
P 26  17434.035980   7971.516547 -18637.117678    236.691973                    
V 26 -21191.247552  10053.726292 -15277.451548     -0.011138                    
P 27  22197.484351  11437.127579   9375.499580     -1.518847                    
V 27   7558.177604   9720.429618 -28571.903849     -0.076447                    
P 28   6736.736701  20909.124666 -14952.288368     82.787888                    
V 28  -5465.926139  18257.326386  23095.690626     -0.011688                    
P 29  -4373.038608  15933.679232 -20825.478310   -605.314661                    
V 29 -18567.190159 -18646.734179 -10489.689518     -0.008668                    
P 30  -1190.526946 -24821.521332   9109.147873   -504.842539                    
V 30   5968.406903 -10458.960315 -28350.088817      0.027342                    
P 31  12716.458367  10458.956866 -20933.552405   -219.914573                    
V 31  -7237.216883  25299.108132   8732.589015     -0.006756                    
P 32  15368.419840  20624.065038   7214.298251   -519.509619                    
V 32  -8258.935541  -4084.377661  29835.634300     -0.077314                    
EOF
